start=new Date('2022-05-29T00:00:00.000Z').valueOf();
sats=[{"SEMIMAJOR_AXIS":"6925.371","INCLINATION":"53.0552","TIME_SYSTEM":"UTC","OBJECT_ID":"2021-044F","MEAN_ANOMALY":"294.4608","REV_AT_EPOCH":"5558","MEAN_MOTION_DOT":"-0.00000343","DECAY_DATE":null,"REF_FRAME":"TEME","RCS_SIZE":"LARGE","ARG_OF_PERICENTER":"65.6540","FILE":"3469840","GP_ID":"204804807","MEAN_MOTION_DDOT":"0.0000000000000","ECCENTRICITY":"0.00015170","OBJECT_NAME":"STARLINK-2704","RA_OF_ASC_NODE":"200.5230","TLE_LINE1":"1 48643U 21044F   22148.83460804 -.00000343  00000-0 -40978-5 0  9991","MEAN_MOTION":"15.06392778","LAUNCH_DATE":"2021-05-26","PERIOD":"95.593","SITE":"AFETR","PERIAPSIS":"546.185","OBJECT_TYPE":"PAYLOAD","APOAPSIS":"548.286","EPHEMERIS_TYPE":"0","TLE_LINE2":"2 48643  53.0552 200.5230 0001517  65.6540 294.4608 15.06392778 55583","COUNTRY_CODE":"US","NORAD_CAT_ID":"48643","CLASSIFICATION_TYPE":"U","CENTER_NAME":"EARTH","ELEMENT_SET_NO":"999","EPOCH":"2022-05-28T20:01:50.134656","BSTAR":"-0.00000409780000","MEAN_ELEMENT_THEORY":"SGP4"},{"GP_ID":"204805052","FILE":"3469840","ARG_OF_PERICENTER":"55.0374","RCS_SIZE":"LARGE","REF_FRAME":"TEME","DECAY_DATE":null,"REV_AT_EPOCH":"5558","MEAN_MOTION_DOT":"0.00000275","MEAN_ANOMALY":"305.0781","TIME_SYSTEM":"UTC","INCLINATION":"53.0535","OBJECT_ID":"2021-044G","SEMIMAJOR_AXIS":"6925.327","BSTAR":"0.00003733100000","MEAN_ELEMENT_THEORY":"SGP4","ELEMENT_SET_NO":"999","EPOCH":"2022-05-28T19:56:31.343712","CLASSIFICATION_TYPE":"U","NORAD_CAT_ID":"48644","CENTER_NAME":"EARTH","COUNTRY_CODE":"US","TLE_LINE2":"2 48644  53.0535 200.5475 0001771  55.0374 305.0781 15.06406932 55585","EPHEMERIS_TYPE":"0","APOAPSIS":"548.419","OBJECT_TYPE":"PAYLOAD","PERIAPSIS":"545.966","SITE":"AFETR","PERIOD":"95.592","LAUNCH_DATE":"2021-05-26","MEAN_MOTION":"15.06406932","ECCENTRICITY":"0.00017710","MEAN_MOTION_DDOT":"0.0000000000000","OBJECT_NAME":"STARLINK-2695","RA_OF_ASC_NODE":"200.5475","TLE_LINE1":"1 48644U 21044G   22148.83091833  .00000275  00000-0  37331-4 0  9994"},{"MEAN_ANOMALY":"301.6441","TIME_SYSTEM":"UTC","INCLINATION":"53.0542","OBJECT_ID":"2021-044H","SEMIMAJOR_AXIS":"6925.319","GP_ID":"204803306","FILE":"3469840","ARG_OF_PERICENTER":"58.4698","RCS_SIZE":"LARGE","REF_FRAME":"TEME","DECAY_DATE":null,"MEAN_MOTION_DOT":"0.00001135","REV_AT_EPOCH":"5555","PERIOD":"95.592","LAUNCH_DATE":"2021-05-26","MEAN_MOTION":"15.06409507","MEAN_MOTION_DDOT":"0.0000000000000","ECCENTRICITY":"0.00015330","OBJECT_NAME":"STARLINK-2733","RA_OF_ASC_NODE":"201.4551","TLE_LINE1":"1 48645U 21044H   22148.62818238  .00001135  00000-0  95075-4 0  9993","MEAN_ELEMENT_THEORY":"SGP4","BSTAR":"0.00009507500000","ELEMENT_SET_NO":"999","EPOCH":"2022-05-28T15:04:34.957632","CLASSIFICATION_TYPE":"U","NORAD_CAT_ID":"48645","CENTER_NAME":"EARTH","TLE_LINE2":"2 48645  53.0542 201.4551 0001533  58.4698 301.6441 15.06409507 55554","COUNTRY_CODE":"US","EPHEMERIS_TYPE":"0","APOAPSIS":"548.246","OBJECT_TYPE":"PAYLOAD","PERIAPSIS":"546.123","SITE":"AFETR"},{"MEAN_ANOMALY":"288.0779","SEMIMAJOR_AXIS":"6925.304","TIME_SYSTEM":"UTC","INCLINATION":"53.0541","OBJECT_ID":"2021-044J","ARG_OF_PERICENTER":"72.0365","FILE":"3469283","GP_ID":"204766803","REV_AT_EPOCH":"5554","MEAN_MOTION_DOT":"0.00000652","DECAY_DATE":null,"RCS_SIZE":"LARGE","REF_FRAME":"TEME","LAUNCH_DATE":"2021-05-26","PERIOD":"95.591","OBJECT_NAME":"STARLINK-2732","MEAN_MOTION_DDOT":"0.0000000000000","ECCENTRICITY":"0.00014280","RA_OF_ASC_NODE":"201.7526","TLE_LINE1":"1 48646U 21044J   22148.55814146  .00000652  00000-0  62611-4 0  9993","MEAN_MOTION":"15.06414611","NORAD_CAT_ID":"48646","CLASSIFICATION_TYPE":"U","CENTER_NAME":"EARTH","EPOCH":"2022-05-28T13:23:43.422144","ELEMENT_SET_NO":"999","BSTAR":"0.00006261100000","MEAN_ELEMENT_THEORY":"SGP4","SITE":"AFETR","OBJECT_TYPE":"PAYLOAD","PERIAPSIS":"546.180","APOAPSIS":"548.158","EPHEMERIS_TYPE":"0","COUNTRY_CODE":"US","TLE_LINE2":"2 48646  53.0541 201.7526 0001428  72.0365 288.0779 15.06414611 55548"},{"SEMIMAJOR_AXIS":"6925.342","OBJECT_ID":"2021-044K","INCLINATION":"53.0540","TIME_SYSTEM":"UTC","MEAN_ANOMALY":"290.8552","REV_AT_EPOCH":"5552","MEAN_MOTION_DOT":"0.00000782","DECAY_DATE":null,"REF_FRAME":"TEME","RCS_SIZE":"LARGE","ARG_OF_PERICENTER":"69.2576","FILE":"3469283","GP_ID":"204765604","TLE_LINE1":"1 48647U 21044K   22148.42177444  .00000782  00000-0  71367-4 0  9995","RA_OF_ASC_NODE":"202.3818","ECCENTRICITY":"0.00012970","MEAN_MOTION_DDOT":"0.0000000000000","OBJECT_NAME":"STARLINK-2691","MEAN_MOTION":"15.06402148","LAUNCH_DATE":"2021-05-26","PERIOD":"95.592","SITE":"AFETR","OBJECT_TYPE":"PAYLOAD","PERIAPSIS":"546.309","APOAPSIS":"548.105","EPHEMERIS_TYPE":"0","TLE_LINE2":"2 48647  53.0540 202.3818 0001297  69.2576 290.8552 15.06402148 55525","COUNTRY_CODE":"US","CENTER_NAME":"EARTH","NORAD_CAT_ID":"48647","CLASSIFICATION_TYPE":"U","ELEMENT_SET_NO":"999","EPOCH":"2022-05-28T10:07:21.311616","MEAN_ELEMENT_THEORY":"SGP4","BSTAR":"0.00007136700000"},{"MEAN_MOTION":"15.06402622","TLE_LINE1":"1 48648U 21044L   22148.55352299 -.00000091  00000-0  12764-4 0  9993","RA_OF_ASC_NODE":"201.7892","MEAN_MOTION_DDOT":"0.0000000000000","OBJECT_NAME":"STARLINK-2521","ECCENTRICITY":"0.00015690","PERIOD":"95.592","LAUNCH_DATE":"2021-05-26","EPHEMERIS_TYPE":"0","APOAPSIS":"548.292","COUNTRY_CODE":"US","TLE_LINE2":"2 48648  53.0541 201.7892 0001569  60.5018 299.6127 15.06402622 55543","SITE":"AFETR","PERIAPSIS":"546.119","OBJECT_TYPE":"PAYLOAD","EPOCH":"2022-05-28T13:17:04.386336","ELEMENT_SET_NO":"999","BSTAR":"0.00001276400000","MEAN_ELEMENT_THEORY":"SGP4","CENTER_NAME":"EARTH","NORAD_CAT_ID":"48648","CLASSIFICATION_TYPE":"U","OBJECT_ID":"2021-044L","TIME_SYSTEM":"UTC","INCLINATION":"53.0541","SEMIMAJOR_AXIS":"6925.341","MEAN_ANOMALY":"299.6127","REF_FRAME":"TEME","RCS_SIZE":"LARGE","REV_AT_EPOCH":"5554","MEAN_MOTION_DOT":"-0.00000091","DECAY_DATE":null,"GP_ID":"204766355","ARG_OF_PERICENTER":"60.5018","FILE":"3469283"},{"MEAN_MOTION":"15.06403501","RA_OF_ASC_NODE":"201.7893","TLE_LINE1":"1 48649U 21044M   22148.55078440  .00000899  00000-0  79227-4 0  9999","ECCENTRICITY":"0.00018790","MEAN_MOTION_DDOT":"0.0000000000000","OBJECT_NAME":"STARLINK-2673","PERIOD":"95.592","LAUNCH_DATE":"2021-05-26","EPHEMERIS_TYPE":"0","APOAPSIS":"548.504","COUNTRY_CODE":"US","TLE_LINE2":"2 48649  53.0547 201.7893 0001879  52.7614 307.3546 15.06403501 55538","SITE":"AFETR","PERIAPSIS":"545.902","OBJECT_TYPE":"PAYLOAD","ELEMENT_SET_NO":"999","EPOCH":"2022-05-28T13:13:07.772160","MEAN_ELEMENT_THEORY":"SGP4","BSTAR":"0.00007922700000","CENTER_NAME":"EARTH","NORAD_CAT_ID":"48649","CLASSIFICATION_TYPE":"U","OBJECT_ID":"2021-044M","INCLINATION":"53.0547","TIME_SYSTEM":"UTC","SEMIMAJOR_AXIS":"6925.338","MEAN_ANOMALY":"307.3546","RCS_SIZE":"LARGE","REF_FRAME":"TEME","MEAN_MOTION_DOT":"0.00000899","REV_AT_EPOCH":"5553","DECAY_DATE":null,"GP_ID":"204803806","ARG_OF_PERICENTER":"52.7614","FILE":"3469840"},{"EPHEMERIS_TYPE":"0","APOAPSIS":"548.236","TLE_LINE2":"2 48650  53.0560 200.3318 0001480  68.3893 291.7253 15.06400971 55586","COUNTRY_CODE":"US","SITE":"AFETR","PERIAPSIS":"546.186","OBJECT_TYPE":"PAYLOAD","EPOCH":"2022-05-28T21:05:30.931872","ELEMENT_SET_NO":"999","MEAN_ELEMENT_THEORY":"SGP4","BSTAR":"0.00012020000000","NORAD_CAT_ID":"48650","CLASSIFICATION_TYPE":"U","CENTER_NAME":"EARTH","MEAN_MOTION":"15.06400971","OBJECT_NAME":"STARLINK-2672","MEAN_MOTION_DDOT":"0.0000000000000","ECCENTRICITY":"0.00014800","RA_OF_ASC_NODE":"200.3318","TLE_LINE1":"1 48650U 21044N   22148.87883023  .00001509  00000-0  12020-3 0  9993","PERIOD":"95.592","LAUNCH_DATE":"2021-05-26","REF_FRAME":"TEME","RCS_SIZE":"LARGE","MEAN_MOTION_DOT":"0.00001509","REV_AT_EPOCH":"5558","DECAY_DATE":null,"GP_ID":"204803556","ARG_OF_PERICENTER":"68.3893","FILE":"3469840","TIME_SYSTEM":"UTC","INCLINATION":"53.0560","OBJECT_ID":"2021-044N","SEMIMAJOR_AXIS":"6925.346","MEAN_ANOMALY":"291.7253"},{"OBJECT_TYPE":"PAYLOAD","PERIAPSIS":"546.169","SITE":"AFETR","COUNTRY_CODE":"US","TLE_LINE2":"2 48651  53.0537 200.3473 0001492  60.3989 299.7148 15.06403654 55586","EPHEMERIS_TYPE":"0","APOAPSIS":"548.236","CLASSIFICATION_TYPE":"U","NORAD_CAT_ID":"48651","CENTER_NAME":"EARTH","BSTAR":"0.00010689000000","MEAN_ELEMENT_THEORY":"SGP4","ELEMENT_SET_NO":"999","EPOCH":"2022-05-28T21:00:11.773728","MEAN_MOTION_DDOT":"0.0000000000000","ECCENTRICITY":"0.00014920","OBJECT_NAME":"STARLINK-2731","RA_OF_ASC_NODE":"200.3473","TLE_LINE1":"1 48651U 21044P   22148.87513627  .00001311  00000-0  10689-3 0  9994","MEAN_MOTION":"15.06403654","LAUNCH_DATE":"2021-05-26","PERIOD":"95.592","DECAY_DATE":null,"MEAN_MOTION_DOT":"0.00001311","REV_AT_EPOCH":"5558","RCS_SIZE":"LARGE","REF_FRAME":"TEME","FILE":"3469840","ARG_OF_PERICENTER":"60.3989","GP_ID":"204804808","SEMIMAJOR_AXIS":"6925.337","INCLINATION":"53.0537","TIME_SYSTEM":"UTC","OBJECT_ID":"2021-044P","MEAN_ANOMALY":"299.7148"},{"RA_OF_ASC_NODE":"200.3658","TLE_LINE1":"1 48652U 21044Q   22148.87146714  .00001861  00000-0  14380-3 0  9996","MEAN_MOTION_DDOT":"0.0000000000000","ECCENTRICITY":"0.00014470","OBJECT_NAME":"STARLINK-2727","MEAN_MOTION":"15.06395378","LAUNCH_DATE":"2021-05-26","PERIOD":"95.592","OBJECT_TYPE":"PAYLOAD","PERIAPSIS":"546.226","SITE":"AFETR","TLE_LINE2":"2 48652  53.0557 200.3658 0001447  61.3460 298.7675 15.06395378 55586","COUNTRY_CODE":"US","EPHEMERIS_TYPE":"0","APOAPSIS":"548.230","CENTER_NAME":"EARTH","CLASSIFICATION_TYPE":"U","NORAD_CAT_ID":"48652","MEAN_ELEMENT_THEORY":"SGP4","BSTAR":"0.00014380000000","EPOCH":"2022-05-28T20:54:54.760896","ELEMENT_SET_NO":"999","SEMIMAJOR_AXIS":"6925.363","OBJECT_ID":"2021-044Q","INCLINATION":"53.0557","TIME_SYSTEM":"UTC","MEAN_ANOMALY":"298.7675","DECAY_DATE":null,"REV_AT_EPOCH":"5558","MEAN_MOTION_DOT":"0.00001861","REF_FRAME":"TEME","RCS_SIZE":"LARGE","FILE":"3469840","ARG_OF_PERICENTER":"61.3460","GP_ID":"204805053"}];
